FENGYUN 1C DEB          
1 30007U 99025MG  17345.94893087  .00000673  00000-0  38766-3 0  9992
2 30007  99.1736 104.1218 0073556 316.4793 162.2998 14.11431067560166
